[{"OBJECT_NAME":"LUDI TANCE 1-01A (L-SAR 01A)","OBJECT_ID":"2022-007A","EPOCH":"2026-03-07T11:12:13.120128","MEAN_MOTION":14.88423371,"ECCENTRICITY":0.00016135,"INCLINATION":97.8118,"RA_OF_ASC_NODE":75.3379,"ARG_OF_PERICENTER":90.555,"MEAN_ANOMALY":269.5851,"EPHEMERIS_TYPE":0,"CLASSIFICATION_TYPE":"U","NORAD_CAT_ID":51284,"ELEMENT_SET_NO":999,"REV_AT_EPOCH":22334,"BSTAR":0.00012861429,"MEAN_MOTION_DOT":1.138e-5,"MEAN_MOTION_DDOT":0},{"OBJECT_NAME":"CZ-6A DEB","OBJECT_ID":"2022-151PJ","EPOCH":"2026-03-09T17:44:17.436480","MEAN_MOTION":14.77867451,"ECCENTRICITY":0.00581726,"INCLINATION":98.6459,"RA_OF_ASC_NODE":132.2881,"ARG_OF_PERICENTER":233.4685,"MEAN_ANOMALY":126.1159,"EPHEMERIS_TYPE":0,"CLASSIFICATION_TYPE":"U","NORAD_CAT_ID":54632,"ELEMENT_SET_NO":999,"REV_AT_EPOCH":17467,"BSTAR":0.002965967,"MEAN_MOTION_DOT":0.00021944,"MEAN_MOTION_DDOT":0}]
